[{"OBJECT_NAME":"FLORIPASAT-1","OBJECT_ID":"2019-093G","EPOCH":"2026-03-09T23:35:55.317696","MEAN_MOTION":15.02721611,"ECCENTRICITY":0.00131238,"INCLINATION":97.7908,"RA_OF_ASC_NODE":162.596,"ARG_OF_PERICENTER":52.6692,"MEAN_ANOMALY":307.5727,"EPHEMERIS_TYPE":0,"CLASSIFICATION_TYPE":"U","NORAD_CAT_ID":44885,"ELEMENT_SET_NO":999,"REV_AT_EPOCH":33774,"BSTAR":0.00066057159,"MEAN_MOTION_DOT":8.782e-5,"MEAN_MOTION_DDOT":0},{"OBJECT_NAME":"STARLINK-5672","OBJECT_ID":"2023-015V","EPOCH":"2026-03-09T01:49:28.914240","MEAN_MOTION":15.02534256,"ECCENTRICITY":0.00017007,"INCLINATION":43.0077,"RA_OF_ASC_NODE":329.1543,"ARG_OF_PERICENTER":265.8854,"MEAN_ANOMALY":94.1794,"EPHEMERIS_TYPE":0,"CLASSIFICATION_TYPE":"U","NORAD_CAT_ID":55468,"ELEMENT_SET_NO":999,"REV_AT_EPOCH":17066,"BSTAR":4.153315e-6,"MEAN_MOTION_DOT":-1.48e-6,"MEAN_MOTION_DDOT":0}]
